STARLINK-5817           
1 55779U 23028AQ  26068.70663983  .00001103  00000+0  10025-3 0  9997
2 55779  70.0001 204.2112 0003222 266.7202  93.3589 14.98328520167035
KOMPSAT-7               
1 66820U 25279A   26068.87103100  .00004022  00000+0  31599-3 0  9996
2 66820  97.6738  18.4558 0009895 343.5135  16.5766 15.01421798 14723
